CELTEE 1                
1 41850U 16067C   18296.24020530 -.00000144  00000-0 -72406-5 0  9995
2 41850  97.9215  26.1082 0009970  96.8277 263.4079 14.96883055106250
OPTICUBE 04             
1 41851U 16067D   18296.21879597  .00000074  00000-0  11774-4 0  9998
2 41851  97.9221  25.9634 0010502  97.4784 262.7630 14.96722469106246
AEROCUBE 8D             
1 41852U 16067E   18296.20261555  .00000806  00000-0  76046-4 0  9993
2 41852  97.9231  25.7791 0011311  99.1113 261.1388 14.96572534106221
AEROCUBE 8C             
1 41853U 16067F   18296.21982664  .00000104  00000-0  14481-4 0  9992
2 41853  97.9232  25.7511 0011580  98.9177 261.3355 14.96539767106225
PROMETHEUS 2-1          
1 41854U 16067G   18296.21577758  .00000537  00000-0  52347-4 0  9990
2 41854  97.9239  25.7908 0011971  98.9789 261.2787 14.96682882106221
PROMETHEUS 2-3          
1 41855U 16067H   18296.28537320  .00000351  00000-0  36059-4 0  9995
2 41855  97.9241  25.8690 0012094  99.0086 261.2504 14.96683173106235
ITF-2                   
1 41932U 98067KU  18296.20728308  .00095965  00000-0  32497-3 0  9997
2 41932  51.6291  36.1301 0005774 342.3407  17.7397 15.89125985101026
AOBA-VELOX 3            
1 41935U 98067KX  18296.38107954  .00574471  18659-3  53436-3 0  9999
2 41935  51.6264  22.8190 0009800 353.9578   6.1317 16.11490574101319
INS-1B                  
1 41954U 17008G   18295.76844093  .00001256  00000-0  55879-4 0  9997
2 41954  97.4328 358.5897 0007715 264.1842  95.8516 15.23336290 93426
BGUSAT                  
1 41999U 17008BD  18296.32311602  .00002109  00000-0  87090-4 0  9992
2 41999  97.4378   0.6033 0006713 281.4651  78.5833 15.25119408 92953
DIDO-2                  
1 42000U 17008BE  18295.17205116  .00000858  00000-0  38994-4 0  9998
2 42000  97.4344 358.4878 0007035 290.1293  69.9186 15.23446948 92739
PEASSS                  
1 42015U 17008BV  18295.14677486  .00001041  00000-0  45515-4 0  9996
2 42015  97.4345 359.0775 0005008 300.5795  59.4948 15.24303860 93254
AL-FARABI 1             
1 42016U 17008BW  18296.15201648  .00001429  00000-0  60514-4 0  9998
2 42016  97.4353   0.3738 0004824 295.8478  64.2261 15.24796080 93542
NAYIF-1 (EO-88)         
1 42017U 17008BX  18296.14416453  .00001414  00000-0  59871-4 0  9998
2 42017  97.4351   0.3740 0004797 296.0617  64.0126 15.24822417 93565
HAVELSAT                
1 42700U 98067LH  18296.37457796  .00059923  00000-0  30879-3 0  9995
2 42700  51.6290  55.4104 0004035 358.8712   1.2280 15.80558723 82224
CXBN-2                  
1 42704U 98067LM  18296.37104777  .00059152  00000-0  31317-3 0  9999
2 42704  51.6321  56.9336 0003387 320.0401  40.0351 15.79974686 82128
PHOENIX                 
1 42706U 98067LP  18296.34176347  .00035719  00000-0  23501-3 0  9999
2 42706  51.6321  60.5245 0002076 314.0534  46.0294 15.75315665 82061
X-CUBESAT               
1 42707U 98067LQ  18296.40225865  .00069516  00000-0  32928-3 0  9992
2 42707  51.6302  53.9983 0003775 326.5372  33.5392 15.82324016 82148
QBEE50-LTU-OC           
1 42708U 98067LR  18296.38978827  .00057578  00000-0  30257-3 0  9991
2 42708  51.6306  56.2783 0002609 329.1706  30.9142 15.80152290 82079
ALTAIR PATHFINDER       
1 42711U 98067LS  18296.38745325  .00020055  00000-0  18036-3 0  9991
2 42711  51.6347  72.9061 0003533 304.5024  55.5638 15.68219985 81566
SHARC                   
1 42712U 98067LT  18296.42660446  .00038959  00000-0  30642-3 0  9996
2 42712  51.6352  73.2336 0002751 305.7901  54.2841 15.71081455 81802
ZA-AEROSAT              
1 42713U 98067LU  18296.36032611  .00035420  00000-0  24896-3 0  9991
2 42713  51.6328  64.3933 0002687 302.1195  57.9542 15.73786743 81671
CSUNSAT 1               
1 42715U 98067LW  18296.36880459  .00038182  00000-0  25323-3 0  9998
2 42715  51.6340  62.9663 0003861 305.2255  54.8383 15.75093346 81690
SPACECUBE               
1 42717U 98067LY  18296.42748737  .00057115  00000-0  30218-3 0  9995
2 42717  51.6260  56.4578 0003363 353.9966   6.0995 15.80003993 81156
HOOPOE                  
1 42718U 98067LZ  18296.35881356  .00114088  00000-0  41289-3 0  9996
2 42718  51.6270  49.9258 0004965 339.2669  20.8133 15.87730917 81233
NJUST-1                 
1 42722U 98067MB  18296.38716774  .00029489  00000-0  22209-3 0  9996
2 42722  51.6343  66.8684 0004723 351.1632   8.9282 15.72251409 80717
UNSW-ECO                
1 42723U 98067MC  18296.35401774  .00153531  19896-4  46753-3 0  9998
2 42723  51.6370  48.5160 0006905 343.9582  16.1204 15.91677111 80933
LILACSAT-1              
1 42725U 98067ME  18296.35742920  .00042010  00000-0  25334-3 0  9995
2 42725  51.6379  61.1758 0004639 353.0313 100.6472 15.77216107 80691
NSIGHT-1                
1 42726U 98067MF  18296.41198389  .00012659  00000-0  13661-3 0  9993
2 42726  51.6378  79.9321 0004758 355.0864   5.0083 15.64052277 80451
SNUSAT-1                
1 42727U 98067MG  18296.41955380  .00046056  00000-0  27851-3 0  9990
2 42727  51.6324  60.9588 0005930 324.4962  35.5643 15.77102262 80667
I-INSPIRE II            
1 42731U 98067ML  18296.33500293  .00192964  25382-4  52295-3 0  9999
2 42731  51.6320  46.7458 0007864 329.1864  30.8680 15.93798806 80737
POLYITAN-2-SAU          
1 42732U 98067MM  18296.36699310  .00073768  00000-0  35589-3 0  9995
2 42732  51.6315  55.3297 0005967 316.9043  43.1491 15.81892282 80629
SNUSAT-1B               
1 42733U 98067MN  18296.37332102  .00051239  00000-0  28899-3 0  9995
2 42733  51.6302  59.1688 0005886 318.2923  41.7628 15.78620016 80574
EXALTA-1                
1 42734U 98067MP  18296.37303278  .00283067  43953-4  59389-3 0  9990
2 42734  51.6221  44.5673 0009306 341.3690  18.6977 15.98355585 80710
BEEAGLESAT              
1 42736U 98067MR  18296.33884967  .00040904  00000-0  26380-3 0  9995
2 42736  51.6322  62.7195 0005128 346.0244  14.0613 15.75696887 80580
UCLSAT                  
1 42765U 17036A   18296.14910470  .00001175  00000-0  54208-4 0  9990
2 42765  97.3867 353.8541 0011431 356.4133   3.7020 15.22158957 74176
LITUANICASAT-2          
1 42768U 17036D   18295.45007301  .00001848  00000-0  84144-4 0  9995
2 42768  97.3889 352.7247 0014944 346.4111  13.6721 15.21865213 73919
AALTO-1                 
1 42775U 17036L   18295.80666194  .00000746  00000-0  36756-4 0  9995
2 42775  97.3857 352.7728 0013565 344.5530  15.5290 15.20955670 73893
URSA MAIOR              
1 42776U 17036M   18295.19377551  .00000793  00000-0  38769-4 0  9992
2 42776  97.3866 352.2515 0013458 346.8825  13.2058 15.21052124 73807
COMPASS 2               
1 42777U 17036N   18296.15512083  .00001558  00000-0  70910-4 0  9995
2 42777  97.3891 353.8106 0012266 346.7488  13.3425 15.22137498 73975
DIAMOND RED             
1 42783U 17036U   18295.78830591  .00000934  00000-0  44260-4 0  9993
2 42783  97.3868 353.2778 0012092 357.4349   2.6823 15.21718158 73911
PEGASUS                 
1 42784U 17036V   18296.13732303  .00001065  00000-0  49688-4 0  9991
2 42784  97.3869 353.7356 0011982 356.1105   4.0036 15.21953824 73972
DIAMOND GREEN           
1 42785U 17036W   18295.58978876  .00000787  00000-0  37752-4 0  9996
2 42785  97.3870 353.1000 0012020 358.7687   1.3517 15.21716437 73872
DIAMOND BLUE            
1 42786U 17036X   18295.58891361  .00000949  00000-0  44906-4 0  9999
2 42786  97.3870 353.0988 0011877 359.1688   0.9526 15.21719793 73875
NUDTSAT                 
1 42787U 17036Y   18296.19926730  .00001919  00000-0  85295-4 0  9991
2 42787  97.3895 354.1354 0012835 350.9808   9.1195 15.22662387 73847
SUCHAI                  
1 42788U 17036Z   18295.14977712  .00001188  00000-0  54600-4 0  9996
2 42788  97.3873 352.9225 0011651 359.5955   0.5270 15.22269519 73906
SKCUBE                  
1 42789U 17036AA  18294.89024216  .00001106  00000-0  51122-4 0  9996
2 42789  97.3871 352.6492 0011530   0.6460 359.4789 15.22209308 73786
VZLUSAT-1               
1 42790U 17036AB  18294.93856194  .00001451  00000-0  65247-4 0  9997
2 42790  97.3878 352.9012 0011125   0.6164 359.5084 15.22668576 73805
ROBUSTA-1B              
1 42792U 17036AD  18295.83236841  .00001208  00000-0  55286-4 0  9992
2 42792  97.3868 353.6643 0011034 358.5329   1.5873 15.22369857 73946
CICERO 6                
1 42793U 17036AE  18295.77765201  .00000967  00000-0  45186-4 0  9992
2 42793  97.3858 353.5540 0010321   0.8009 359.3242 15.22132215 74009
D-SAT                   
1 42794U 17036AF  18296.03136320  .00000413  00000-0  41604-4 0  9994
2 42794  97.5764 345.7567 0126042 216.1833 143.0811 14.90950166 72774
TOKI                    
1 42820U 98067MU  18295.79216859  .00039052  00000-0  26598-3 0  9990
2 42820  51.6315  68.8376 0003176 290.2590  69.8067 15.74469924 73918
MAZAALAI (NUMSAT-1)     
1 42822U 98067MW  18295.79171846  .00038863  00000-0  27043-3 0  9993
2 42822  51.6320  69.5978 0003225 294.6236  65.4427 15.73973551 73885
BRAC ONNESHA            
1 42823U 98067MX  18295.77540413  .00041625  00000-0  28629-3 0  9993
2 42823  51.6340  69.5148 0004805 312.7548  47.3046 15.74205446 73888
NIGERIAEDUSAT-1         
1 42824U 98067MY  18295.82201798  .00036539  00000-0  25626-3 0  9992
2 42824  51.6331  69.8505 0004857 311.7262  48.3321 15.73812903 73875
CORVUS BC2              
1 42846U 17042X   18295.77868957  .00000070  00000-0  12190-4 0  9994
2 42846  97.5842 193.9549 0010826 125.7492 234.4735 14.91872472 69398
CORVUS BC1              
1 42847U 17042Y   18296.35150578  .00000188  00000-0  23825-4 0  9990
2 42847  97.5840 194.5747 0010461 123.6228 236.5991 14.91972355 69470
SILU-1 (SILKROAD 1)     
1 42903U 17021F   18296.39904308  .00039850  00000-0  21770-3 0  9996
2 42903  42.7743 267.9285 0013377 132.3576   0.5752 15.79019431 70145
MIRATA                  
1 43015U 17073C   18296.22207911  .00000673  00000-0  58835-4 0  9990
2 43015  97.7080 221.9031 0256187 214.3816 144.0589 14.78440466 50053
